GLOBALSTAR M045         
1 25676U 99019A   25223.27256632 -.00000068  00000+0  22456-3 0  9997
2 25676  51.9961 148.2640 0000704  10.9090 155.8969 12.27064536200151
GLOBALSTAR M019         
1 25677U 99019B   25223.18171036 -.00000152  00000+0 -64575-3 0  9995
2 25677  51.9876 282.7619 0001492  92.6071 298.8728 12.13875397191822
GLOBALSTAR M044         
1 25678U 99019C   25223.09602418 -.00000083  00000+0  14668-4 0  9990
2 25678  51.9941 241.2293 0006138 147.9467 246.2582 11.90254188177865
GLOBALSTAR M042         
1 25679U 99019D   25223.10033021 -.00000090  00000+0  20397-4 0  9995
2 25679  51.9996 255.9356 0002931  56.1838 333.9036 12.22085358191971
GLOBALSTAR M025         
1 25770U 99031A   25223.18454091 -.00000065  00000+0  68938-4 0  9998
2 25770  51.9839  31.8650 0001216 222.3039 309.7912 11.22563955487887
GLOBALSTAR M049         
1 25771U 99031B   25223.26661574 -.00000098  00000+0 -11514-2 0  9997
2 25771  51.9880  69.2075 0003595  92.2848 267.8360 11.12117118123551
GLOBALSTAR M047         
1 25772U 99031C   25223.25327315 -.00000065  00000+0  11914-3 0  9997
2 25772  51.9838  60.9458 0016690   0.2455 359.8357 11.31929331477347
GLOBALSTAR M052         
1 25773U 99031D   25223.29660373 -.00000105  00000+0 -13107-2 0  9997
2 25773  51.9841 177.0376 0002715 274.5953 255.9149 11.15060176484655
